NUSAT-16 (LISE)         
1 46840U 20079P   22143.15320370  .00022065  00000+0  60825-3 0  9991
2 46840  97.2072 214.5910 0006778  70.9312  12.7870 15.37109360 86254
SENTINEL-6              
1 46984U 20086A   22142.91007995 -.00000061  00000+0  00000+0 0  9994
2 46984  66.0449 342.0822 0007808 267.6351  92.3770 12.80930679 70095
GAOFEN 12-2             
1 48079U 21026A   22143.08290018  .00000634  00000+0  90143-4 0  9992
2 48079  97.8925 134.1866 0001483  78.3862 281.7527 14.80236676 61876
PLEIADES NEO 3          
1 48268U 21034A   22143.13367077 -.00000126  00000+0 -94314-5 0  9990
2 48268  97.8930 218.2251 0001277  90.7319 269.4063 14.81671590 57603
NUSAT-19 (ROSALIND)     
1 48905U 21059AC  22143.13627837  .00010155  00000+0  48716-3 0  9992
2 48905  97.5049 273.0506 0010863 156.5076  16.4455 15.19030536 50220
NUSAT-22 (SOFYA)        
1 48919U 21059AS  22143.09361350  .00025044  00000+0  68762-3 0  9993
2 48919  97.3634 274.6040 0014322 125.3954 349.1105 15.37129113 50639
NUSAT-21 (ELISA)        
1 48920U 21059AT  22143.07489814  .00024789  00000+0  68135-3 0  9998
2 48920  97.3500 274.1861 0014213 137.8284 339.9740 15.37098347 50638
NUSAT-20 (GRACE)        
1 48921U 21059AU  22143.12115727  .00024875  00000+0  68387-3 0  9999
2 48921  97.3620 274.6266 0014363 154.8945  18.1173 15.37088815 50630
PLEIADES NEO 4          
1 49070U 21073E   22143.09989118 -.00000050  00000+0  27006-6 0  9996
2 49070  97.8927 218.1878 0001081  81.8315 278.3050 14.81672517 41311
LANDSAT 9               
1 49260U 21088A   22143.05070340  .00000530  00000+0  12760-3 0  9997
2 49260  98.1872 213.5921 0001478  81.5329 278.6037 14.57113237 34575
CSG-2                   
1 51444U 22008A   22143.11070034 -.00001073  00000+0 -12828-3 0  9994
2 51444  97.8884 327.1432 0001523  87.6250 272.5121 14.82144233 16464
SARSAT 7 (NOAA 15)      
1 25338U 98030A   22143.09232294  .00000257  00000+0  12579-3 0  9994
2 25338  98.6457 172.9573 0010615  18.5176 341.6388 14.26127960249654
METEOSAT-8 (MSG-1)      
1 27509U 02040B   22142.89729031  .00000125  00000+0  00000+0 0  9995
2 27509   7.9933  50.7979 0002605 331.8336 222.3742  1.00276247 72340
GPS BIIR-08             
1 27663U 03005A   22142.83649598 -.00000047  00000+0  00000+0 0  9995
2 27663  55.5299 274.0780 0125923  41.0054 317.0481  2.00566004141491
GPS BIIR-11             
1 28190U 04009A   22142.33630255 -.00000067  00000+0  00000+0 0  9993
2 28190  56.0198 335.0714 0090344 119.1490  34.0367  2.00560820133125
GPS BIIR-13             
1 28474U 04045A   22141.76209590 -.00000102  00000+0  00000+0 0  9998
2 28474  55.3420  24.5139 0206721 278.7633  89.2366  2.00564729128600
SARSAT 10 (NOAA 18)     
1 28654U 05018A   22143.06375550  .00000236  00000+0  15095-3 0  9995
2 28654  98.9497 213.5188 0014934  47.2537 312.9889 14.12732034876480
GPS BIIR-14M            
1 28874U 05038A   22142.32260509 -.00000064  00000+0  00000+0 0  9992
2 28874  56.0872 332.5055 0137178 274.4324 249.3608  2.00577908122011
METEOSAT-9 (MSG-2)      
1 28912U 05049B   22142.96996772  .00000118  00000+0  00000+0 0  9994
2 28912   5.9655  66.4653 0000656  49.4021 159.6775  1.00280507 60178
GOES 13                 
1 29155U 06018A   22142.82956966  .00000027  00000+0  00000+0 0  9996
2 29155   0.5381  96.8563 0002043  87.6410  56.1766  1.00267586 28470
GPS BIIR-16M            
1 29601U 06052A   22142.64747018 -.00000044  00000+0  00000+0 0  9996
2 29601  55.5361 273.0220 0084212  73.2946 287.6162  2.00578424113592
GPS BIIR-17M            
1 32260U 07047A   22142.46627921  .00000068  00000+0  00000+0 0  9991
2 32260  53.3078 141.6204 0138493  62.1922 299.2151  2.00549576106991
GPS BIIR-18M            
1 32384U 07062A   22142.78072750 -.00000066  00000+0  00000+0 0  9993
2 32384  56.2050 333.2451 0019960 134.4075 224.1998  2.00560502105696
SARSAT 12 (NOAA 19)     
1 33591U 09005A   22143.06208177  .00000197  00000+0  13177-3 0  9996
2 33591  99.1497 176.6631 0012910 258.2107 101.7616 14.12566781684865
GOES 14                 
1 35491U 09033A   22142.59971208 -.00000101  00000+0  00000+0 0  9990
2 35491   0.2612  94.8619 0011528 118.9005 137.7947  1.00270642 47206
GOES 15                 
1 36411U 10008A   22142.72007552  .00000044  00000+0  00000+0 0  9999
2 36411   0.2329 103.8137 0001882 336.6638 291.3655  1.00260463 44764
GPS BIIF-2              
1 37753U 11036A   22142.82485988 -.00000105  00000+0  00000+0 0  9994
2 37753  56.5946  29.7010 0117203  51.4072 128.2360  2.00565167 79464
GSAT0101 (GALILEO-PFM)  
1 37846U 11060A   22141.85524604 -.00000101  00000+0  00000+0 0  9991
2 37846  56.9865  22.0582 0004109  29.0248 331.0391  1.70474972 65762
GSAT0102 (GALILEO-FM2)  
1 37847U 11060B   22141.48582008 -.00000099  00000+0  00000+0 0  9999
2 37847  56.9873  22.0682 0004163 358.8598 181.1039  1.70475276 65765
LUCH 5A                 
1 37951U 11074B   22142.90429969 -.00000055  00000+0  00000+0 0  9996
2 37951   4.9571  98.1561 0005930 335.8025 299.1014  1.00268273 38282
METEOSAT-10 (MSG-3)     
1 38552U 12035B   22142.81919071  .00000054  00000+0  00000+0 0  9998
2 38552   1.4882  39.5965 0000679 234.8188 270.4303  1.00279408 35953
SARSAT 13 (METOP-B)     
1 38771U 12049A   22143.08577733  .00000152  00000+0  89658-4 0  9991
2 38771  98.6971 203.2117 0001914 109.7367   3.9856 14.21483248502120
GPS BIIF-3              
1 38833U 12053A   22142.06173113  .00000004  00000+0  00000+0 0  9991
2 38833  53.5306 204.4311 0123021  45.9920 315.0835  2.00561443 69614
GSAT0103 (GALILEO-FM3)  
1 38857U 12055A   22141.30836182  .00000065  00000+0  00000+0 0  9994
2 38857  55.1303 142.4444 0005560 269.3848  90.5551  1.70473630 59649
GSAT0104 (GALILEO-FM4)  
1 38858U 12055B   22141.27852992  .00000065  00000+0  00000+0 0  9998
2 38858  55.1308 142.4466 0003124 270.4711  89.4967  1.70473909 59642
GPS BIIF-4              
1 39166U 13023A   22141.92050982 -.00000061  00000+0  00000+0 0  9995
2 39166  55.7158 328.9042 0103999  37.9972 322.7417  2.00565984 66056
INSAT-3D                
1 39216U 13038B   22142.83366892 -.00000167  00000+0  00000+0 0  9995
2 39216   0.0445 116.7451 0001108 339.5714 166.3834  1.00271382 32193
GPS BIIF-5              
1 39533U 14008A   22142.41683124 -.00000005  00000+0  00000+0 0  9990
2 39533  53.6252 209.9201 0059339 207.8219 151.9230  2.00552110 59864
LUCH 5V                 
1 39727U 14023A   22142.83623433 -.00000279  00000+0  00000+0 0  9998
2 39727   1.4403  75.0115 0003714  22.0876 179.1200  1.00272927 29451
GPS BIIF-6              
1 39741U 14026A   22142.19889533 -.00000102  00000+0  00000+0 0  9996
2 39741  56.5566  29.2511 0027404 307.6978  52.0909  2.00557797 58714
GPS BIIF-7              
1 40105U 14045A   22142.28443268  .00000070  00000+0  00000+0 0  9997
2 40105  54.6866 147.8484 0018649 109.5178 250.7033  2.00576178 56256
GSAT0201 (GALILEO 5)    
1 40128U 14050A   22140.72045909 -.00000084  00000+0  00000+0 0  9991
2 40128  50.3015 333.3858 1629119 123.0195 253.7246  1.85518703 50703
GSAT0202 (GALILEO 6)    
1 40129U 14050B   22142.05954642 -.00000087  00000+0  00000+0 0  9996
2 40129  50.3264 332.3922 1626129 123.8775 252.6950  1.85519323 52892
GPS BIIF-8              
1 40294U 14068A   22142.16209904 -.00000006  00000+0  00000+0 0  9995
2 40294  55.7969  88.9732 0039945  52.9810 307.3584  2.00569550 55387
GLONASS-K 2             
1 40315U 14075A   22142.89598223 -.00000031  00000+0  00000+0 0  9990
2 40315  63.6950 242.0650 0018150 208.2273 311.8854  2.13101357 58187
GPS BIIF-9              
1 40534U 15013A   22142.79629273 -.00000049  00000+0  00000+0 0  9994
2 40534  53.7196 265.7582 0068562  20.6398 339.6295  2.00553997 52014
GSAT0203 (GALILEO 7)    
1 40544U 15017A   22141.04944684 -.00000098  00000+0  00000+0 0  9996
2 40544  56.7817  22.1173 0001610 290.6433  69.3820  1.70475592 43830
GSAT0204 (GALILEO 8)    
1 40545U 15017B   22141.30214816 -.00000099  00000+0  00000+0 0  9994
2 40545  56.7871  22.1226 0000777 253.6504 106.3830  1.70475343  6882
GPS BIIF-10             
1 40730U 15033A   22142.46207775 -.00000062  00000+0  00000+0 0  9992
2 40730  55.2147 327.7242 0074208   7.8657 352.2576  2.00553153 50178
METEOSAT-11 (MSG-4)     
1 40732U 15034A   22142.81727191 -.00000016  00000+0  00000+0 0  9992
2 40732   0.2451  45.7639 0001264  55.5663  72.9332  1.00272835 25121
GSAT0205 (GALILEO 9)    
1 40889U 15045A   22142.82894262 -.00000043  00000+0  00000+0 0  9992
2 40889  55.6406 262.6708 0004174  24.6265 335.3833  1.70473835 41673
GSAT0206 (GALILEO 10)   
1 40890U 15045B   22140.70338559 -.00000025  00000+0  00000+0 0  9991
2 40890  55.6409 262.7253 0002345  16.3512 343.6504  1.70473844 41661
GPS BIIF-11             
1 41019U 15062A   22142.50770782 -.00000008  00000+0  00000+0 0  9993
2 41019  55.7860  88.8018 0077518 218.5056 140.9161  2.00562761 48010
ELEKTRO-L 2             
1 41105U 15074A   22142.67090810 -.00000125  00000+0  00000+0 0  9997
2 41105   2.9236  88.3895 0001223  30.3673 348.4810  1.00269992 23614
GSAT0209 (GALILEO 12)   
1 41174U 15079A   22140.87792460  .00000064  00000+0  00000+0 0  9999
2 41174  55.1467 142.1595 0005601 302.5044  57.4440  1.70474442 39980
GSAT0208 (GALILEO 11)   
1 41175U 15079B   22142.27054012  .00000068  00000+0  00000+0 0  9994
2 41175  55.1456 142.1198 0004882 301.7567  58.2008  1.70474477 39841
GPS BIIF-12             
1 41328U 16007A   22142.60039859  .00000074  00000+0  00000+0 0  9992
2 41328  54.9049 148.5014 0061562 230.4515 129.0240  2.00571822 46021
GSAT0211 (GALILEO 14)   
1 41549U 16030A   22140.63037156 -.00000024  00000+0  00000+0 0  9998
2 41549  55.7864 262.6574 0002891 334.2974  25.6822  1.70475321 37290
GSAT0210 (GALILEO 13)   
1 41550U 16030B   22142.09617059 -.00000037  00000+0  00000+0 0  9992
2 41550  55.7853 262.6186 0002111 287.7193  72.2499  1.70475450 37290
